start=new Date('2022-04-05T00:00:00.000Z').valueOf();
sats=[{"MEAN_MOTION":"15.08862728","TIME_SYSTEM":"UTC","FILE":"3388452","NORAD_CAT_ID":"49758","ARG_OF_PERICENTER":"65.1063","TLE_LINE2":"2 49758  53.2174  99.6856 0001463  65.1063 290.9853 15.08862728 20190","COUNTRY_CODE":"US","TLE_LINE1":"1 49758U 21115AL  22095.00001157 -.00041089  00000-0 -25768-2 0  9999","GP_ID":"200439841","OBJECT_ID":"2021-115AL","EPOCH":"2022-04-05T00:00:00.999648","BSTAR":"-0.00257680000000","INCLINATION":"53.2174","MEAN_ANOMALY":"290.9853","ELEMENT_SET_NO":"999","CLASSIFICATION_TYPE":"U","APOAPSIS":"540.688","MEAN_ELEMENT_THEORY":"SGP4","OBJECT_TYPE":"PAYLOAD","RCS_SIZE":"LARGE","CENTER_NAME":"EARTH","OBJECT_NAME":"STARLINK-3194","PERIAPSIS":"538.664","REF_FRAME":"TEME","DECAY_DATE":null,"SEMIMAJOR_AXIS":"6917.811","PERIOD":"95.436","MEAN_MOTION_DOT":"-0.00041089","EPHEMERIS_TYPE":"0","SITE":"AFETR","MEAN_MOTION_DDOT":"0.0000000000000","ECCENTRICITY":"0.00014630","RA_OF_ASC_NODE":"99.6856","REV_AT_EPOCH":"2019","LAUNCH_DATE":"2021-12-02"},{"COUNTRY_CODE":"US","TLE_LINE1":"1 49759U 21115AM  22095.00001157 -.00661868  00000-0 -43414-1 0  9990","GP_ID":"200439517","TLE_LINE2":"2 49759  53.2174  99.6893 0001509  52.5682   2.6400 15.09671908 20195","ELEMENT_SET_NO":"999","CLASSIFICATION_TYPE":"U","MEAN_ANOMALY":"2.6400","INCLINATION":"53.2174","BSTAR":"-0.04341400000000","EPOCH":"2022-04-05T00:00:00.999648","OBJECT_ID":"2021-115AM","TIME_SYSTEM":"UTC","MEAN_MOTION":"15.09671908","ARG_OF_PERICENTER":"52.5682","NORAD_CAT_ID":"49759","FILE":"3388467","MEAN_MOTION_DOT":"-0.00661868","PERIOD":"95.385","DECAY_DATE":null,"SEMIMAJOR_AXIS":"6915.339","REF_FRAME":"TEME","LAUNCH_DATE":"2021-12-02","REV_AT_EPOCH":"2019","ECCENTRICITY":"0.00015090","RA_OF_ASC_NODE":"99.6893","MEAN_MOTION_DDOT":"0.0000000000000","EPHEMERIS_TYPE":"0","SITE":"AFETR","MEAN_ELEMENT_THEORY":"SGP4","APOAPSIS":"538.247","PERIAPSIS":"536.160","OBJECT_NAME":"STARLINK-3204","CENTER_NAME":"EARTH","RCS_SIZE":"LARGE","OBJECT_TYPE":"PAYLOAD"},{"ARG_OF_PERICENTER":"46.2232","FILE":"3388452","NORAD_CAT_ID":"49760","TIME_SYSTEM":"UTC","MEAN_MOTION":"15.12933036","MEAN_ANOMALY":"248.3217","INCLINATION":"53.2175","CLASSIFICATION_TYPE":"U","ELEMENT_SET_NO":"999","OBJECT_ID":"2021-115AN","EPOCH":"2022-04-05T00:00:00.999648","BSTAR":"-0.03966100000000","TLE_LINE2":"2 49760  53.2175  99.6926 0001702  46.2232 248.3217 15.12933036 20205","TLE_LINE1":"1 49760U 21115AN  22095.00001157 -.00662198  00000-0 -39661-1 0  9998","COUNTRY_CODE":"US","GP_ID":"200439549","OBJECT_NAME":"STARLINK-3199","PERIAPSIS":"526.088","OBJECT_TYPE":"PAYLOAD","RCS_SIZE":"LARGE","CENTER_NAME":"EARTH","MEAN_ELEMENT_THEORY":"SGP4","APOAPSIS":"528.438","RA_OF_ASC_NODE":"99.6926","ECCENTRICITY":"0.00017020","REV_AT_EPOCH":"2020","LAUNCH_DATE":"2021-12-02","EPHEMERIS_TYPE":"0","SITE":"AFETR","MEAN_MOTION_DDOT":"0.0000000000000","SEMIMAJOR_AXIS":"6905.398","DECAY_DATE":null,"PERIOD":"95.179","MEAN_MOTION_DOT":"-0.00662198","REF_FRAME":"TEME"},{"SITE":"AFETR","EPHEMERIS_TYPE":"0","MEAN_MOTION_DDOT":"0.0000000000000","ECCENTRICITY":"0.00014690","RA_OF_ASC_NODE":"99.6865","REV_AT_EPOCH":"2019","LAUNCH_DATE":"2021-12-02","REF_FRAME":"TEME","DECAY_DATE":null,"SEMIMAJOR_AXIS":"6917.076","PERIOD":"95.421","MEAN_MOTION_DOT":"-0.00364107","OBJECT_TYPE":"PAYLOAD","RCS_SIZE":"LARGE","CENTER_NAME":"EARTH","OBJECT_NAME":"STARLINK-3203","PERIAPSIS":"537.924","APOAPSIS":"539.957","MEAN_ELEMENT_THEORY":"SGP4","OBJECT_ID":"2021-115AP","EPOCH":"2022-04-05T00:00:00.999648","BSTAR":"-0.02387500000000","INCLINATION":"53.2174","MEAN_ANOMALY":"313.8899","CLASSIFICATION_TYPE":"U","ELEMENT_SET_NO":"999","TLE_LINE2":"2 49761  53.2174  99.6865 0001469  62.0577 313.8899 15.09103329 20197","TLE_LINE1":"1 49761U 21115AP  22095.00001157 -.00364107  00000-0 -23875-1 0  9998","COUNTRY_CODE":"US","GP_ID":"200439901","FILE":"3388456","NORAD_CAT_ID":"49761","ARG_OF_PERICENTER":"62.0577","MEAN_MOTION":"15.09103329","TIME_SYSTEM":"UTC"},{"RCS_SIZE":"LARGE","CENTER_NAME":"EARTH","OBJECT_TYPE":"PAYLOAD","PERIAPSIS":"525.734","OBJECT_NAME":"STARLINK-3195","APOAPSIS":"528.077","MEAN_ELEMENT_THEORY":"SGP4","MEAN_MOTION_DDOT":"0.0000000000000","SITE":"AFETR","EPHEMERIS_TYPE":"0","LAUNCH_DATE":"2021-12-02","ECCENTRICITY":"0.00016970","RA_OF_ASC_NODE":"101.5752","REV_AT_EPOCH":"364","REF_FRAME":"TEME","PERIOD":"95.172","MEAN_MOTION_DOT":"-0.00662792","DECAY_DATE":null,"SEMIMAJOR_AXIS":"6905.040","NORAD_CAT_ID":"49762","FILE":"3387897","ARG_OF_PERICENTER":"47.7326","MEAN_MOTION":"15.13050498","TIME_SYSTEM":"UTC","BSTAR":"-0.03956800000000","OBJECT_ID":"2021-115AQ","EPOCH":"2022-04-04T14:00:01.000224","ELEMENT_SET_NO":"999","CLASSIFICATION_TYPE":"U","INCLINATION":"53.2172","MEAN_ANOMALY":"101.0624","TLE_LINE2":"2 49762  53.2172 101.5752 0001697  47.7326 101.0624 15.13050498  3646","COUNTRY_CODE":"US","TLE_LINE1":"1 49762U 21115AQ  22094.58334491 -.00662792  00000-0 -39568-1 0  9998","GP_ID":"200427774"},{"ARG_OF_PERICENTER":"38.7902","NORAD_CAT_ID":"49763","FILE":"3388468","TIME_SYSTEM":"UTC","MEAN_MOTION":"15.13165733","CLASSIFICATION_TYPE":"U","ELEMENT_SET_NO":"999","MEAN_ANOMALY":"273.2328","INCLINATION":"53.2175","BSTAR":"-0.03937300000000","EPOCH":"2022-04-05T00:00:00.999648","OBJECT_ID":"2021-115AR","TLE_LINE1":"1 49763U 21115AR  22095.00001157 -.00661750  00000-0 -39373-1 0  9994","COUNTRY_CODE":"US","GP_ID":"200439577","TLE_LINE2":"2 49763  53.2175  99.6907 0001821  38.7902 273.2328 15.13165733 20201","PERIAPSIS":"525.298","OBJECT_NAME":"STARLINK-3198","CENTER_NAME":"EARTH","RCS_SIZE":"LARGE","OBJECT_TYPE":"PAYLOAD","MEAN_ELEMENT_THEORY":"SGP4","APOAPSIS":"527.812","LAUNCH_DATE":"2021-12-02","REV_AT_EPOCH":"2020","ECCENTRICITY":"0.00018210","RA_OF_ASC_NODE":"99.6907","MEAN_MOTION_DDOT":"0.0000000000000","SITE":"AFETR","EPHEMERIS_TYPE":"0","MEAN_MOTION_DOT":"-0.00661750","PERIOD":"95.165","SEMIMAJOR_AXIS":"6904.690","DECAY_DATE":null,"REF_FRAME":"TEME"},{"DECAY_DATE":null,"SEMIMAJOR_AXIS":"6908.232","PERIOD":"95.238","MEAN_MOTION_DOT":"-0.00663764","REF_FRAME":"TEME","ECCENTRICITY":"0.00018950","RA_OF_ASC_NODE":"99.6979","REV_AT_EPOCH":"2020","LAUNCH_DATE":"2021-12-02","EPHEMERIS_TYPE":"0","SITE":"AFETR","MEAN_MOTION_DDOT":"0.0000000000000","MEAN_ELEMENT_THEORY":"SGP4","APOAPSIS":"531.406","OBJECT_NAME":"STARLINK-3206","PERIAPSIS":"528.788","OBJECT_TYPE":"PAYLOAD","RCS_SIZE":"LARGE","CENTER_NAME":"EARTH","TLE_LINE2":"2 49764  53.2174  99.6979 0001895  42.6479 180.5897 15.12002091 20201","GP_ID":"200439582","TLE_LINE1":"1 49764U 21115AS  22095.00001157 -.00663764  00000-0 -40812-1 0  9992","COUNTRY_CODE":"US","INCLINATION":"53.2174","MEAN_ANOMALY":"180.5897","ELEMENT_SET_NO":"999","CLASSIFICATION_TYPE":"U","OBJECT_ID":"2021-115AS","EPOCH":"2022-04-05T00:00:00.999648","BSTAR":"-0.04081200000000","TIME_SYSTEM":"UTC","MEAN_MOTION":"15.12002091","ARG_OF_PERICENTER":"42.6479","FILE":"3388468","NORAD_CAT_ID":"49764"},{"REF_FRAME":"TEME","DECAY_DATE":null,"SEMIMAJOR_AXIS":"6906.106","MEAN_MOTION_DOT":"-0.00662658","PERIOD":"95.194","SITE":"AFETR","EPHEMERIS_TYPE":"0","MEAN_MOTION_DDOT":"0.0000000000000","REV_AT_EPOCH":"2020","RA_OF_ASC_NODE":"99.6943","ECCENTRICITY":"0.00016820","LAUNCH_DATE":"2021-12-02","APOAPSIS":"529.133","MEAN_ELEMENT_THEORY":"SGP4","OBJECT_TYPE":"PAYLOAD","CENTER_NAME":"EARTH","RCS_SIZE":"LARGE","OBJECT_NAME":"STARLINK-3227","PERIAPSIS":"526.809","TLE_LINE1":"1 49765U 21115AT  22095.00001157 -.00662658  00000-0 -39951-1 0  9996","COUNTRY_CODE":"US","GP_ID":"200439849","TLE_LINE2":"2 49765  53.2174  99.6943 0001682  48.8303 228.0969 15.12700349 20200","EPOCH":"2022-04-05T00:00:00.999648","OBJECT_ID":"2021-115AT","BSTAR":"-0.03995100000000","MEAN_ANOMALY":"228.0969","INCLINATION":"53.2174","ELEMENT_SET_NO":"999","CLASSIFICATION_TYPE":"U","MEAN_MOTION":"15.12700349","TIME_SYSTEM":"UTC","FILE":"3388452","NORAD_CAT_ID":"49765","ARG_OF_PERICENTER":"48.8303"},{"CLASSIFICATION_TYPE":"U","ELEMENT_SET_NO":"999","MEAN_ANOMALY":"159.0016","INCLINATION":"53.2174","BSTAR":"-0.04110900000000","OBJECT_ID":"2021-115AU","EPOCH":"2022-04-05T00:00:00.999648","TLE_LINE2":"2 49766  53.2174  99.6985 0001811  46.0606 159.0016 15.11769385 20195","TLE_LINE1":"1 49766U 21115AU  22095.00001157 -.00664218  00000-0 -41109-1 0  9999","COUNTRY_CODE":"US","GP_ID":"200439580","ARG_OF_PERICENTER":"46.0606","NORAD_CAT_ID":"49766","FILE":"3388468","TIME_SYSTEM":"UTC","MEAN_MOTION":"15.11769385","LAUNCH_DATE":"2021-12-02","ECCENTRICITY":"0.00018110","RA_OF_ASC_NODE":"99.6985","REV_AT_EPOCH":"2019","MEAN_MOTION_DDOT":"0.0000000000000","EPHEMERIS_TYPE":"0","SITE":"AFETR","PERIOD":"95.253","MEAN_MOTION_DOT":"-0.00664218","DECAY_DATE":null,"SEMIMAJOR_AXIS":"6908.941","REF_FRAME":"TEME","PERIAPSIS":"529.555","OBJECT_NAME":"STARLINK-3190","RCS_SIZE":"LARGE","CENTER_NAME":"EARTH","OBJECT_TYPE":"PAYLOAD","MEAN_ELEMENT_THEORY":"SGP4","APOAPSIS":"532.057"},{"REF_FRAME":"TEME","DECAY_DATE":null,"SEMIMAJOR_AXIS":"6907.523","MEAN_MOTION_DOT":"-0.00663420","PERIOD":"95.223","SITE":"AFETR","EPHEMERIS_TYPE":"0","MEAN_MOTION_DDOT":"0.0000000000000","REV_AT_EPOCH":"2020","RA_OF_ASC_NODE":"99.6970","ECCENTRICITY":"0.00018020","LAUNCH_DATE":"2021-12-02","APOAPSIS":"530.633","MEAN_ELEMENT_THEORY":"SGP4","OBJECT_TYPE":"PAYLOAD","CENTER_NAME":"EARTH","RCS_SIZE":"LARGE","OBJECT_NAME":"STARLINK-3192","PERIAPSIS":"528.143","GP_ID":"200439553","TLE_LINE1":"1 49767U 21115AV  22095.00001157 -.00663420  00000-0 -40525-1 0  9995","COUNTRY_CODE":"US","TLE_LINE2":"2 49767  53.2174  99.6970 0001802  45.5993 195.6743 15.12234871 20206","EPOCH":"2022-04-05T00:00:00.999648","OBJECT_ID":"2021-115AV","BSTAR":"-0.04052500000000","INCLINATION":"53.2174","MEAN_ANOMALY":"195.6743","CLASSIFICATION_TYPE":"U","ELEMENT_SET_NO":"999","MEAN_MOTION":"15.12234871","TIME_SYSTEM":"UTC","FILE":"3388452","NORAD_CAT_ID":"49767","ARG_OF_PERICENTER":"45.5993"}];
